$$SOE
2460147.500000000, A.D. 2023-Jul-22 00:00:00.0000, 1.993208323885458E+08, 1.657917141192695E+08, 4.390016325238921E+07,
2460154.500000000, A.D. 2023-Jul-29 00:00:00.0000, 1.893704385630707E+08, 1.750548797209907E+08, 4.818521700192180E+07,
2460161.500000000, A.D. 2023-Aug-05 00:00:00.0000, 1.789112041285447E+08, 1.838475826001664E+08, 5.234073115703224E+07,
2460168.500000000, A.D. 2023-Aug-12 00:00:00.0000, 1.679683010613818E+08, 1.921431781971766E+08, 5.635468080735585E+07,
2460175.500000000, A.D. 2023-Aug-19 00:00:00.0000, 1.565689119667800E+08, 1.999164891087239E+08, 6.021540850194404E+07,
2460182.500000000, A.D. 2023-Aug-26 00:00:00.0000, 1.447421228236512E+08, 2.071439667344627E+08, 6.391169320814195E+07,
2460189.500000000, A.D. 2023-Sep-02 00:00:00.0000, 1.325187968007186E+08, 2.138038431393048E+08, 6.743281731806314E+07,
2460196.500000000, A.D. 2023-Sep-09 00:00:00.0000, 1.199314302839709E+08, 2.198762708040518E+08, 7.076863075643517E+07,
2460203.500000000, A.D. 2023-Sep-16 00:00:00.0000, 1.070139927603991E+08, 2.253434480790101E+08, 7.390961125640363E+07,
2460210.500000000, A.D. 2023-Sep-23 00:00:00.0000, 9.380175279865958E+07, 2.301897287224433E+08, 7.684691992851116E+07,
2460217.500000000, A.D. 2023-Sep-30 00:00:00.0000, 8.033109192829765E+07, 2.344017150845391E+08, 7.957245146860285E+07,
2460224.500000000, A.D. 2023-Oct-07 00:00:00.0000, 6.663930646189402E+07, 2.379683330611131E+08, 8.207887847703375E+07,
2460231.500000000, A.D. 2023-Oct-14 00:00:00.0000, 5.276440086787647E+07, 2.408808845329531E+08, 8.435968893877989E+07,
2460238.500000000, A.D. 2023-Oct-21 00:00:00.0000, 3.874487864962326E+07, 2.431330783402596E+08, 8.640921626926731E+07,
2460245.500000000, A.D. 2023-Oct-28 00:00:00.0000, 2.461953211576394E+07, 2.447210418624846E+08, 8.822266193247649E+07,
2460252.500000000, A.D. 2023-Nov-04 00:00:00.0000, 1.042723257034836E+07, 2.456433126171883E+08, 8.979611049996731E+07,
2460259.500000000, A.D. 2023-Nov-11 00:00:00.0000, -3.793276214665341E+06, 2.459008098436365E+08, 9.112653704409793E+07,
2460266.500000000, A.D. 2023-Nov-18 00:00:00.0000, -1.800357850052774E+07, 2.454967869298016E+08, 9.221180694650412E+07,
2460273.500000000, A.D. 2023-Nov-25 00:00:00.0000, -3.216577866985689E+07, 2.444367659539823E+08, 9.305066837630658E+07,
2460280.500000000, A.D. 2023-Dec-02 00:00:00.0000, -4.624268280241494E+07, 2.427284558572719E+08, 9.364273783304264E+07,
2460287.500000000, A.D. 2023-Dec-09 00:00:00.0000, -6.019796786358836E+07, 2.403816559338814E+08, 9.398847924824601E+07,
2460294.500000000, A.D. 2023-Dec-16 00:00:00.0000, -7.399633673038684E+07, 2.374081465548516E+08, 9.408917720320874E+07,
2460301.500000000, A.D. 2023-Dec-23 00:00:00.0000, -8.760365755505708E+07, 2.338215698180192E+08, 9.394690492892052E+07,
2460308.500000000, A.D. 2023-Dec-30 00:00:00.0000, -1.009870879980233E+08, 2.296373032367584E+08, 9.356448798769978E+07,
2460315.500000000, A.D. 2024-Jan-06 00:00:00.0000, -1.141151856121890E+08, 2.248723261742779E+08, 9.294546432314980E+07,
2460322.500000000, A.D. 2024-Jan-13 00:00:00.0000, -1.269580010238345E+08, 2.195450792103122E+08, 9.209404094874135E+07,
2460329.500000000, A.D. 2024-Jan-20 00:00:00.0000, -1.394871528219213E+08, 2.136753214400510E+08, 9.101504813062415E+07,
2460336.500000000, A.D. 2024-Jan-27 00:00:00.0000, -1.516758865653898E+08, 2.072839881778065E+08, 8.971389200798751E+07,
2460343.500000000, A.D. 2024-Feb-03 00:00:00.0000, -1.634991189279101E+08, 2.003930497695086E+08, 8.819650626555145E+07,
2460350.500000000, A.D. 2024-Feb-10 00:00:00.0000, -1.749334674894612E+08, 1.930253726951164E+08, 8.646930341425416E+07,
2460357.500000000, A.D. 2024-Feb-17 00:00:00.0000, -1.859572669776503E+08, 1.852045842594087E+08, 8.453912622563657E+07,
2460364.500000000, A.D. 2024-Feb-24 00:00:00.0000, -1.965505729784453E+08, 1.769549419900350E+08, 8.241319982200818E+07,
2460371.500000000, A.D. 2024-Mar-02 00:00:00.0000, -2.066951542197009E+08, 1.683012086288139E+08, 8.009908486268927E+07,
2460378.500000000, A.D. 2024-Mar-09 00:00:00.0000, -2.163744744651067E+08, 1.592685333913925E+08, 7.760463219104537E+07,
2460385.500000000, A.D. 2024-Mar-16 00:00:00.0000, -2.255736648143470E+08, 1.498823402568806E+08, 7.493793923893610E+07,
2460392.500000000, A.D. 2024-Mar-23 00:00:00.0000, -2.342794876957912E+08, 1.401682247960773E+08, 7.210730854060262E+07,
2460399.500000000, A.D. 2024-Mar-30 00:00:00.0000, -2.424802959525881E+08, 1.301518597611765E+08, 6.912120875252923E+07,
2460406.500000000, A.D. 2024-Apr-06 00:00:00.0000, -2.501659878824260E+08, 1.198589061922521E+08, 6.598823802068995E+07,
2460413.500000000, A.D. 2024-Apr-13 00:00:00.0000, -2.573279557168173E+08, 1.093149308777879E+08, 6.271708952098437E+07,
2460420.500000000, A.D. 2024-Apr-20 00:00:00.0000, -2.639590294602473E+08, 9.854533272479250E+07, 5.931651951596022E+07,
2460427.500000000, A.D. 2024-Apr-27 00:00:00.0000, -2.700534185216321E+08, 8.757527727936205E+07, 5.579531803077133E+07,
2460434.500000000, A.D. 2024-May-04 00:00:00.0000, -2.756066518790244E+08, 7.642963844004676E+07, 5.216228206030282E+07,
2460441.500000000, A.D. 2024-May-11 00:00:00.0000, -2.806155172753648E+08, 6.513294694775793E+07, 4.842619122326115E+07,
2460448.500000000, A.D. 2024-May-18 00:00:00.0000, -2.850780000175161E+08, 5.370934531356193E+07, 4.459578578086014E+07,
2460455.500000000, A.D. 2024-May-25 00:00:00.0000, -2.889932219293595E+08, 4.218254878720249E+07, 4.067974692349801E+07,
2460462.500000000, A.D. 2024-Jun-01 00:00:00.0000, -2.923613808978124E+08, 3.057581190011960E+07, 3.668667920797489E+07,
2460469.500000000, A.D. 2024-Jun-08 00:00:00.0000, -2.951836911907863E+08, 1.891190014118228E+07, 3.262509500338657E+07,
2460476.500000000, A.D. 2024-Jun-15 00:00:00.0000, -2.974623245037168E+08, 7.213066888667495E+06, 2.850340082920152E+07,
2460483.500000000, A.D. 2024-Jun-22 00:00:00.0000, -2.992003530322837E+08, -4.498963645551541E+06, 2.432988564521118E+07,
2460490.500000000, A.D. 2024-Jun-29 00:00:00.0000, -3.004016969322736E+08, -1.620300969302640E+07, 2.011271100927985E+07,
2460497.500000000, A.D. 2024-Jul-06 00:00:00.0000, -3.010710737163714E+08, -2.787844429507880E+07, 1.585990252916227E+07,
2460504.500000000, A.D. 2024-Jul-13 00:00:00.0000, -3.012139477798675E+08, -3.950520430865218E+07, 1.157934253235685E+07,
2460511.500000000, A.D. 2024-Jul-20 00:00:00.0000, -3.008364821296351E+08, -5.106379526348950E+07, 7.278764104458902E+06,
2460518.500000000, A.D. 2024-Jul-27 00:00:00.0000, -2.999454930343711E+08, -6.253529338003258E+07, 2.965746356798746E+06,
2460525.500000000, A.D. 2024-Aug-03 00:00:00.0000, -2.985484073674477E+08, -7.390134544805749E+07, -1.352289248419736E+06,
2460532.500000000, A.D. 2024-Aug-10 00:00:00.0000, -2.966532224929936E+08, -8.514416686523625E+07, -5.668081642566364E+06,
2460539.500000000, A.D. 2024-Aug-17 00:00:00.0000, -2.942684686342228E+08, -9.624653808179721E+07, -9.974532073099315E+06,
2460546.500000000, A.D. 2024-Aug-24 00:00:00.0000, -2.914031736542917E+08, -1.071917997174170E+08, -1.426470530667044E+07,
2460553.500000000, A.D. 2024-Aug-31 00:00:00.0000, -2.880668300671145E+08, -1.179638466392299E+08, -1.853183021694683E+07,
2460560.500000000, A.D. 2024-Sep-07 00:00:00.0000, -2.842693638333852E+08, -1.285471210950074E+08, -2.276929986028656E+07,
2460567.500000000, A.D. 2024-Sep-14 00:00:00.0000, -2.800211047814986E+08, -1.389266041175659E+08, -2.697067104122970E+07,
2460574.500000000, A.D. 2024-Sep-21 00:00:00.0000, -2.753327606146105E+08, -1.490878049796212E+08, -3.112966322187487E+07,
2460581.500000000, A.D. 2024-Sep-28 00:00:00.0000, -2.702153949234725E+08, -1.590167520932369E+08, -3.524015706555816E+07,
2460588.500000000, A.D. 2024-Oct-05 00:00:00.0000, -2.646804054606259E+08, -1.686999854956692E+08, -3.929619301750194E+07,
2460595.500000000, A.D. 2024-Oct-12 00:00:00.0000, -2.587395029493221E+08, -1.781245480648502E+08, -4.329196970429778E+07,
2460602.500000000, A.D. 2024-Oct-19 00:00:00.0000, -2.524046920793390E+08, -1.872779758451843E+08, -4.722184206438748E+07,
2460609.500000000, A.D. 2024-Oct-26 00:00:00.0000, -2.456882546197086E+08, -1.961482883887278E+08, -5.108031931741092E+07,
2460616.500000000, A.D. 2024-Nov-02 00:00:00.0000, -2.386027342934991E+08, -2.047239793590657E+08, -5.486206285104100E+07,
2460623.500000000, A.D. 2024-Nov-09 00:00:00.0000, -2.311609232271593E+08, -2.129940074664961E+08, -5.856188407299732E+07,
2460630.500000000, A.D. 2024-Nov-16 00:00:00.0000, -2.233758498598827E+08, -2.209477878118234E+08, -6.217474226739942E+07,
2460637.500000000, A.D. 2024-Nov-23 00:00:00.0000, -2.152607681776150E+08, -2.285751837571640E+08, -6.569574249696398E+07,
2460644.500000000, A.D. 2024-Nov-30 00:00:00.0000, -2.068291479763023E+08, -2.358664994282521E+08, -6.912013360389228E+07,
2460651.500000000, A.D. 2024-Dec-07 00:00:00.0000, -1.980946656501751E+08, -2.428124724834206E+08, -7.244330634134977E+07,
2460658.500000000, A.D. 2024-Dec-14 00:00:00.0000, -1.890711961107844E+08, -2.494042659748026E+08, -7.566079149754453E+07,
2460665.500000000, A.D. 2024-Dec-21 00:00:00.0000, -1.797728080730198E+08, -2.556334605870049E+08, -7.876825792391880E+07,
2460672.500000000, A.D. 2024-Dec-28 00:00:00.0000, -1.702137606559026E+08, -2.614920502640684E+08, -8.176151091316368E+07,
2460679.500000000, A.D. 2025-Jan-04 00:00:00.0000, -1.604084986264701E+08, -2.669724388904459E+08, -8.463649099341103E+07,
2460686.500000000, A.D. 2025-Jan-11 00:00:00.0000, -1.503716480359043E+08, -2.720674364023504E+08, -8.738927285620980E+07,
2460693.500000000, A.D. 2025-Jan-18 00:00:00.0000, -1.401180130928106E+08, -2.767702552794307E+08, -9.001606442709047E+07,
2460700.500000000, A.D. 2025-Jan-25 00:00:00.0000, -1.296625739578357E+08, -2.810745079194624E+08, -9.251320615567203E+07,
2460707.500000000, A.D. 2025-Feb-01 00:00:00.0000, -1.190204851969651E+08, -2.849742049536522E+08, -9.487717056023414E+07,
2460714.500000000, A.D. 2025-Feb-08 00:00:00.0000, -1.082070747626701E+08, -2.884637545116487E+08, -9.710456204665984E+07,
$$EOE